<?xml version="1.0" encoding="UTF-8"?>
<ndm xmlns:xsi="http://www.w3.org/2001/XMLSchema-instance" xsi:noNamespaceSchemaLocation="https://sanaregistry.org/r/ndmxml_unqualified/ndmxml-2.0.0-master-2.0.xsd">
<omm id="CCSDS_OMM_VERS" version="2.0">
<header><CREATION_DATE/><ORIGINATOR/></header><body><segment><metadata><OBJECT_NAME>ONEWEB-0120</OBJECT_NAME><OBJECT_ID>2020-100J</OBJECT_ID><CENTER_NAME>EARTH</CENTER_NAME><REF_FRAME>TEME</REF_FRAME><TIME_SYSTEM>UTC</TIME_SYSTEM><MEAN_ELEMENT_THEORY>SGP4</MEAN_ELEMENT_THEORY></metadata><data><meanElements><EPOCH>2024-06-12T05:26:08.750688</EPOCH><MEAN_MOTION>13.12481780</MEAN_MOTION><ECCENTRICITY>.0002101</ECCENTRICITY><INCLINATION>87.8937</INCLINATION><RA_OF_ASC_NODE>137.0122</RA_OF_ASC_NODE><ARG_OF_PERICENTER>79.0943</ARG_OF_PERICENTER><MEAN_ANOMALY>281.0422</MEAN_ANOMALY></meanElements><tleParameters><EPHEMERIS_TYPE>0</EPHEMERIS_TYPE><CLASSIFICATION_TYPE>U</CLASSIFICATION_TYPE><NORAD_CAT_ID>47266</NORAD_CAT_ID><ELEMENT_SET_NO>999</ELEMENT_SET_NO><REV_AT_EPOCH>16832</REV_AT_EPOCH><BSTAR>-.36224E-2</BSTAR><MEAN_MOTION_DOT>-.1291E-4</MEAN_MOTION_DOT><MEAN_MOTION_DDOT>0</MEAN_MOTION_DDOT></tleParameters></data></segment></body></omm>
<omm id="CCSDS_OMM_VERS" version="2.0">
<header><CREATION_DATE/><ORIGINATOR/></header><body><segment><metadata><OBJECT_NAME>ONEWEB-0121</OBJECT_NAME><OBJECT_ID>2020-100K</OBJECT_ID><CENTER_NAME>EARTH</CENTER_NAME><REF_FRAME>TEME</REF_FRAME><TIME_SYSTEM>UTC</TIME_SYSTEM><MEAN_ELEMENT_THEORY>SGP4</MEAN_ELEMENT_THEORY></metadata><data><meanElements><EPOCH>2024-06-12T05:09:35.759808</EPOCH><MEAN_MOTION>13.12483225</MEAN_MOTION><ECCENTRICITY>.0001972</ECCENTRICITY><INCLINATION>87.8953</INCLINATION><RA_OF_ASC_NODE>137.0066</RA_OF_ASC_NODE><ARG_OF_PERICENTER>86.6759</ARG_OF_PERICENTER><MEAN_ANOMALY>273.4595</MEAN_ANOMALY></meanElements><tleParameters><EPHEMERIS_TYPE>0</EPHEMERIS_TYPE><CLASSIFICATION_TYPE>U</CLASSIFICATION_TYPE><NORAD_CAT_ID>47267</NORAD_CAT_ID><ELEMENT_SET_NO>999</ELEMENT_SET_NO><REV_AT_EPOCH>16823</REV_AT_EPOCH><BSTAR>-.10129E-1</BSTAR><MEAN_MOTION_DOT>-.3632E-4</MEAN_MOTION_DOT><MEAN_MOTION_DDOT>0</MEAN_MOTION_DDOT></tleParameters></data></segment></body></omm>
<omm id="CCSDS_OMM_VERS" version="2.0">
<header><CREATION_DATE/><ORIGINATOR/></header><body><segment><metadata><OBJECT_NAME>ONEWEB-0122</OBJECT_NAME><OBJECT_ID>2020-100L</OBJECT_ID><CENTER_NAME>EARTH</CENTER_NAME><REF_FRAME>TEME</REF_FRAME><TIME_SYSTEM>UTC</TIME_SYSTEM><MEAN_ELEMENT_THEORY>SGP4</MEAN_ELEMENT_THEORY></metadata><data><meanElements><EPOCH>2024-06-12T05:02:24.827712</EPOCH><MEAN_MOTION>13.12489115</MEAN_MOTION><ECCENTRICITY>.0002171</ECCENTRICITY><INCLINATION>87.8928</INCLINATION><RA_OF_ASC_NODE>137.0111</RA_OF_ASC_NODE><ARG_OF_PERICENTER>81.4443</ARG_OF_PERICENTER><MEAN_ANOMALY>278.6931</MEAN_ANOMALY></meanElements><tleParameters><EPHEMERIS_TYPE>0</EPHEMERIS_TYPE><CLASSIFICATION_TYPE>U</CLASSIFICATION_TYPE><NORAD_CAT_ID>47268</NORAD_CAT_ID><ELEMENT_SET_NO>999</ELEMENT_SET_NO><REV_AT_EPOCH>16814</REV_AT_EPOCH><BSTAR>-.11975E-1</BSTAR><MEAN_MOTION_DOT>-.4296E-4</MEAN_MOTION_DOT><MEAN_MOTION_DDOT>0</MEAN_MOTION_DDOT></tleParameters></data></segment></body></omm>
<omm id="CCSDS_OMM_VERS" version="2.0">
<header><CREATION_DATE/><ORIGINATOR/></header><body><segment><metadata><OBJECT_NAME>ONEWEB-0123</OBJECT_NAME><OBJECT_ID>2020-100M</OBJECT_ID><CENTER_NAME>EARTH</CENTER_NAME><REF_FRAME>TEME</REF_FRAME><TIME_SYSTEM>UTC</TIME_SYSTEM><MEAN_ELEMENT_THEORY>SGP4</MEAN_ELEMENT_THEORY></metadata><data><meanElements><EPOCH>2024-06-12T04:55:35.504256</EPOCH><MEAN_MOTION>13.12485294</MEAN_MOTION><ECCENTRICITY>.0001937</ECCENTRICITY><INCLINATION>87.8934</INCLINATION><RA_OF_ASC_NODE>137.0258</RA_OF_ASC_NODE><ARG_OF_PERICENTER>83.8053</ARG_OF_PERICENTER><MEAN_ANOMALY>276.3296</MEAN_ANOMALY></meanElements><tleParameters><EPHEMERIS_TYPE>0</EPHEMERIS_TYPE><CLASSIFICATION_TYPE>U</CLASSIFICATION_TYPE><NORAD_CAT_ID>47269</NORAD_CAT_ID><ELEMENT_SET_NO>999</ELEMENT_SET_NO><REV_AT_EPOCH>16828</REV_AT_EPOCH><BSTAR>-.16429E-1</BSTAR><MEAN_MOTION_DOT>-.5898E-4</MEAN_MOTION_DOT><MEAN_MOTION_DDOT>0</MEAN_MOTION_DDOT></tleParameters></data></segment></body></omm>
<omm id="CCSDS_OMM_VERS" version="2.0">
<header><CREATION_DATE/><ORIGINATOR/></header><body><segment><metadata><OBJECT_NAME>ONEWEB-0124</OBJECT_NAME><OBJECT_ID>2020-100N</OBJECT_ID><CENTER_NAME>EARTH</CENTER_NAME><REF_FRAME>TEME</REF_FRAME><TIME_SYSTEM>UTC</TIME_SYSTEM><MEAN_ELEMENT_THEORY>SGP4</MEAN_ELEMENT_THEORY></metadata><data><meanElements><EPOCH>2024-06-12T04:39:15.794784</EPOCH><MEAN_MOTION>13.12495105</MEAN_MOTION><ECCENTRICITY>.0002109</ECCENTRICITY><INCLINATION>87.8936</INCLINATION><RA_OF_ASC_NODE>137.0242</RA_OF_ASC_NODE><ARG_OF_PERICENTER>88.8536</ARG_OF_PERICENTER><MEAN_ANOMALY>271.2834</MEAN_ANOMALY></meanElements><tleParameters><EPHEMERIS_TYPE>0</EPHEMERIS_TYPE><CLASSIFICATION_TYPE>U</CLASSIFICATION_TYPE><NORAD_CAT_ID>47270</NORAD_CAT_ID><ELEMENT_SET_NO>999</ELEMENT_SET_NO><REV_AT_EPOCH>16816</REV_AT_EPOCH><BSTAR>-.22427E-1</BSTAR><MEAN_MOTION_DOT>-.8055E-4</MEAN_MOTION_DOT><MEAN_MOTION_DDOT>0</MEAN_MOTION_DDOT></tleParameters></data></segment></body></omm>
<omm id="CCSDS_OMM_VERS" version="2.0">
<header><CREATION_DATE/><ORIGINATOR/></header><body><segment><metadata><OBJECT_NAME>ONEWEB-0125</OBJECT_NAME><OBJECT_ID>2020-100P</OBJECT_ID><CENTER_NAME>EARTH</CENTER_NAME><REF_FRAME>TEME</REF_FRAME><TIME_SYSTEM>UTC</TIME_SYSTEM><MEAN_ELEMENT_THEORY>SGP4</MEAN_ELEMENT_THEORY></metadata><data><meanElements><EPOCH>2024-06-11T22:37:07.167648</EPOCH><MEAN_MOTION>13.12354412</MEAN_MOTION><ECCENTRICITY>.0001774</ECCENTRICITY><INCLINATION>87.8937</INCLINATION><RA_OF_ASC_NODE>137.0337</RA_OF_ASC_NODE><ARG_OF_PERICENTER>94.0258</ARG_OF_PERICENTER><MEAN_ANOMALY>266.1073</MEAN_ANOMALY></meanElements><tleParameters><EPHEMERIS_TYPE>0</EPHEMERIS_TYPE><CLASSIFICATION_TYPE>U</CLASSIFICATION_TYPE><NORAD_CAT_ID>47271</NORAD_CAT_ID><ELEMENT_SET_NO>999</ELEMENT_SET_NO><REV_AT_EPOCH>16819</REV_AT_EPOCH><BSTAR>.14112E-1</BSTAR><MEAN_MOTION_DOT>.5086E-4</MEAN_MOTION_DOT><MEAN_MOTION_DDOT>0</MEAN_MOTION_DDOT></tleParameters></data></segment></body></omm>
<omm id="CCSDS_OMM_VERS" version="2.0">
<header><CREATION_DATE/><ORIGINATOR/></header><body><segment><metadata><OBJECT_NAME>ONEWEB-0126</OBJECT_NAME><OBJECT_ID>2020-100Q</OBJECT_ID><CENTER_NAME>EARTH</CENTER_NAME><REF_FRAME>TEME</REF_FRAME><TIME_SYSTEM>UTC</TIME_SYSTEM><MEAN_ELEMENT_THEORY>SGP4</MEAN_ELEMENT_THEORY></metadata><data><meanElements><EPOCH>2024-06-12T04:42:45.834048</EPOCH><MEAN_MOTION>13.12496517</MEAN_MOTION><ECCENTRICITY>.000177</ECCENTRICITY><INCLINATION>87.8892</INCLINATION><RA_OF_ASC_NODE>136.9852</RA_OF_ASC_NODE><ARG_OF_PERICENTER>78.1290</ARG_OF_PERICENTER><MEAN_ANOMALY>282.0037</MEAN_ANOMALY></meanElements><tleParameters><EPHEMERIS_TYPE>0</EPHEMERIS_TYPE><CLASSIFICATION_TYPE>U</CLASSIFICATION_TYPE><NORAD_CAT_ID>47272</NORAD_CAT_ID><ELEMENT_SET_NO>999</ELEMENT_SET_NO><REV_AT_EPOCH>16829</REV_AT_EPOCH><BSTAR>-.22367E-1</BSTAR><MEAN_MOTION_DOT>-.8033E-4</MEAN_MOTION_DOT><MEAN_MOTION_DDOT>0</MEAN_MOTION_DDOT></tleParameters></data></segment></body></omm>
<omm id="CCSDS_OMM_VERS" version="2.0">
<header><CREATION_DATE/><ORIGINATOR/></header><body><segment><metadata><OBJECT_NAME>ONEWEB-0127</OBJECT_NAME><OBJECT_ID>2020-100R</OBJECT_ID><CENTER_NAME>EARTH</CENTER_NAME><REF_FRAME>TEME</REF_FRAME><TIME_SYSTEM>UTC</TIME_SYSTEM><MEAN_ELEMENT_THEORY>SGP4</MEAN_ELEMENT_THEORY></metadata><data><meanElements><EPOCH>2024-06-12T00:08:16.625472</EPOCH><MEAN_MOTION>13.12460115</MEAN_MOTION><ECCENTRICITY>.0002207</ECCENTRICITY><INCLINATION>87.8938</INCLINATION><RA_OF_ASC_NODE>137.0556</RA_OF_ASC_NODE><ARG_OF_PERICENTER>82.7813</ARG_OF_PERICENTER><MEAN_ANOMALY>277.3567</MEAN_ANOMALY></meanElements><tleParameters><EPHEMERIS_TYPE>0</EPHEMERIS_TYPE><CLASSIFICATION_TYPE>U</CLASSIFICATION_TYPE><NORAD_CAT_ID>47273</NORAD_CAT_ID><ELEMENT_SET_NO>999</ELEMENT_SET_NO><REV_AT_EPOCH>16829</REV_AT_EPOCH><BSTAR>-.71904E-2</BSTAR><MEAN_MOTION_DOT>-.2574E-4</MEAN_MOTION_DOT><MEAN_MOTION_DDOT>0</MEAN_MOTION_DDOT></tleParameters></data></segment></body></omm>

</ndm>
