ONEWEB-0120             
1 47266U 20100J   24164.22649017 -.00001291  00000+0 -36224-2 0  9999
2 47266  87.8937 137.0122 0002101  79.0943 281.0422 13.12481780168325
ONEWEB-0121             
1 47267U 20100K   24164.21499722 -.00003632  00000+0 -10129-1 0  9991
2 47267  87.8953 137.0066 0001972  86.6759 273.4595 13.12483225168237
ONEWEB-0122             
1 47268U 20100L   24164.21000958 -.00004296  00000+0 -11975-1 0  9998
2 47268  87.8928 137.0111 0002171  81.4443 278.6931 13.12489115168141
ONEWEB-0123             
1 47269U 20100M   24164.20527204 -.00005898  00000+0 -16429-1 0  9994
2 47269  87.8934 137.0258 0001937  83.8053 276.3296 13.12485294168281
ONEWEB-0124             
1 47270U 20100N   24164.19393281 -.00008055  00000+0 -22427-1 0  9993
2 47270  87.8936 137.0242 0002109  88.8536 271.2834 13.12495105168162
ONEWEB-0125             
1 47271U 20100P   24163.94244407  .00005086  00000+0  14112-1 0  9992
2 47271  87.8937 137.0337 0001774  94.0258 266.1073 13.12354412168192
ONEWEB-0126             
1 47272U 20100Q   24164.19636382 -.00008033  00000+0 -22367-1 0  9996
2 47272  87.8892 136.9852 0001770  78.1290 282.0037 13.12496517168299
ONEWEB-0127             
1 47273U 20100R   24164.00574798 -.00002574  00000+0 -71904-2 0  9995
2 47273  87.8938 137.0556 0002207  82.7813 277.3567 13.12460115168292
